LEMUR-2-GREENBERG       
1 42837U 17042N   26068.46200528  .00019778  00000+0  72539-3 0  9997
2 42837  97.3781 249.8007 0009157   4.0119 356.1192 15.27971352473146
STARLINK-30887          
1 58394U 23178W   26068.22234539  .00000558  00000+0  30951-4 0  9991
2 58394  53.1618   3.5105 0000924  88.3390 271.7716 15.30188910129790
